[{"OBJECT_NAME":"STARLINK-30986","OBJECT_ID":"2023-186V","EPOCH":"2026-03-09T00:12:17.228736","MEAN_MOTION":15.26746052,"ECCENTRICITY":0.00013223,"INCLINATION":43.0032,"RA_OF_ASC_NODE":67.355,"ARG_OF_PERICENTER":276.4823,"MEAN_ANOMALY":83.5877,"EPHEMERIS_TYPE":0,"CLASSIFICATION_TYPE":"U","NORAD_CAT_ID":58492,"ELEMENT_SET_NO":999,"REV_AT_EPOCH":12578,"BSTAR":3.626784e-5,"MEAN_MOTION_DOT":7.13e-6,"MEAN_MOTION_DDOT":0},{"OBJECT_NAME":"FENGYUN 1C DEB","OBJECT_ID":"1999-025AQG","EPOCH":"2026-03-09T10:43:06.043872","MEAN_MOTION":15.25746961,"ECCENTRICITY":0.00178142,"INCLINATION":98.9311,"RA_OF_ASC_NODE":250.2123,"ARG_OF_PERICENTER":328.3876,"MEAN_ANOMALY":31.6286,"EPHEMERIS_TYPE":0,"CLASSIFICATION_TYPE":"U","NORAD_CAT_ID":30674,"ELEMENT_SET_NO":999,"REV_AT_EPOCH":98658,"BSTAR":0.015201752,"MEAN_MOTION_DOT":0.00411052,"MEAN_MOTION_DDOT":0}]
